[
  {
    "COMMENT": "GENERATED VIA SPACETRACK.ORG API",
    "ORIGINATOR": "18 SPCS",
    "NORAD_CAT_ID": "48621",
    "OBJECT_NAME": "HAIYANG 2D",
    "OBJECT_TYPE": "PAYLOAD",
    "CLASSIFICATION_TYPE": "U",
    "INTLDES": "21043A",
    "EPOCH": "2022-11-01 17:15:57",
    "EPOCH_MICROSECONDS": "22272",
    "MEAN_MOTION": "13.8337291",
    "ECCENTRICITY": "0.0011407",
    "INCLINATION": "66.0005",
    "RA_OF_ASC_NODE": "359.6808",
    "ARG_OF_PERICENTER": "263.1472",
    "MEAN_ANOMALY": "96.8304",
    "EPHEMERIS_TYPE": "0",
    "ELEMENT_SET_NO": "999",
    "REV_AT_EPOCH": "7352",
    "BSTAR": "0.00007998",
    "MEAN_MOTION_DOT": "0.00000007",
    "MEAN_MOTION_DDOT": "0",
    "FILE": "3640357",
    "TLE_LINE0": "0 HAIYANG 2D",
    "TLE_LINE1": "1 48621U 21043A   22305.71940998  .00000007  00000-0  79980-4 0  9994",
    "TLE_LINE2": "2 48621  66.0005 359.6808 0011407 263.1472  96.8304 13.83372910 73521",
    "OBJECT_ID": "2021-043A",
    "OBJECT_NUMBER": "48621",
    "SEMIMAJOR_AXIS": "7330.085",
    "PERIOD": "104.093",
    "APOGEE": "960.311",
    "PERIGEE": "943.588",
    "DECAYED": "0"
  },
  {
    "COMMENT": "GENERATED VIA SPACETRACK.ORG API",
    "ORIGINATOR": "18 SPCS",
    "NORAD_CAT_ID": "48621",
    "OBJECT_NAME": "HAIYANG 2D",
    "OBJECT_TYPE": "PAYLOAD",
    "CLASSIFICATION_TYPE": "U",
    "INTLDES": "21043A",
    "EPOCH": "2022-11-01 22:28:15",
    "EPOCH_MICROSECONDS": "835296",
    "MEAN_MOTION": "13.83372978",
    "ECCENTRICITY": "0.0011414",
    "INCLINATION": "66.0005",
    "RA_OF_ASC_NODE": "359.1411",
    "ARG_OF_PERICENTER": "263.0607",
    "MEAN_ANOMALY": "96.9166",
    "EPHEMERIS_TYPE": "0",
    "ELEMENT_SET_NO": "999",
    "REV_AT_EPOCH": "7355",
    "BSTAR": "0.000081764",
    "MEAN_MOTION_DOT": "0.00000009",
    "MEAN_MOTION_DDOT": "0",
    "FILE": "3640431",
    "TLE_LINE0": "0 HAIYANG 2D",
    "TLE_LINE1": "1 48621U 21043A   22305.93629439  .00000009  00000-0  81764-4 0  9997",
    "TLE_LINE2": "2 48621  66.0005 359.1411 0011414 263.0607  96.9166 13.83372978 73557",
    "OBJECT_ID": "2021-043A",
    "OBJECT_NUMBER": "48621",
    "SEMIMAJOR_AXIS": "7330.085",
    "PERIOD": "104.093",
    "APOGEE": "960.316",
    "PERIGEE": "943.583",
    "DECAYED": "0"
  },
  {
    "COMMENT": "GENERATED VIA SPACETRACK.ORG API",
    "ORIGINATOR": "18 SPCS",
    "NORAD_CAT_ID": "48621",
    "OBJECT_NAME": "HAIYANG 2D",
    "OBJECT_TYPE": "PAYLOAD",
    "CLASSIFICATION_TYPE": "U",
    "INTLDES": "21043A",
    "EPOCH": "2022-11-02 05:24:40",
    "EPOCH_MICROSECONDS": "923360",
    "MEAN_MOTION": "13.83372996",
    "ECCENTRICITY": "0.0011409",
    "INCLINATION": "66.0005",
    "RA_OF_ASC_NODE": "358.4213",
    "ARG_OF_PERICENTER": "263.0159",
    "MEAN_ANOMALY": "96.9608",
    "EPHEMERIS_TYPE": "0",
    "ELEMENT_SET_NO": "999",
    "REV_AT_EPOCH": "7359",
    "BSTAR": "0.000078429",
    "MEAN_MOTION_DOT": "0.00000005",
    "MEAN_MOTION_DDOT": "0",
    "FILE": "3641074",
    "TLE_LINE0": "0 HAIYANG 2D",
    "TLE_LINE1": "1 48621U 21043A   22306.22547365  .00000005  00000-0  78429-4 0  9997",
    "TLE_LINE2": "2 48621  66.0005 358.4213 0011409 263.0159  96.9608 13.83372996 73590",
    "OBJECT_ID": "2021-043A",
    "OBJECT_NUMBER": "48621",
    "SEMIMAJOR_AXIS": "7330.084",
    "PERIOD": "104.093",
    "APOGEE": "960.312",
    "PERIGEE": "943.587",
    "DECAYED": "0"
  },
  {
    "COMMENT": "GENERATED VIA SPACETRACK.ORG API",
    "ORIGINATOR": "18 SPCS",
    "NORAD_CAT_ID": "48621",
    "OBJECT_NAME": "HAIYANG 2D",
    "OBJECT_TYPE": "PAYLOAD",
    "CLASSIFICATION_TYPE": "U",
    "INTLDES": "21043A",
    "EPOCH": "2022-11-02 14:05:12",
    "EPOCH_MICROSECONDS": "308064",
    "MEAN_MOTION": "13.83373086",
    "ECCENTRICITY": "0.0011416",
    "INCLINATION": "66.0005",
    "RA_OF_ASC_NODE": "357.5213",
    "ARG_OF_PERICENTER": "263.0395",
    "MEAN_ANOMALY": "96.938",
    "EPHEMERIS_TYPE": "0",
    "ELEMENT_SET_NO": "999",
    "REV_AT_EPOCH": "7364",
    "BSTAR": "0.000083059",
    "MEAN_MOTION_DOT": "0.0000001",
    "MEAN_MOTION_DDOT": "0",
    "FILE": "3642068",
    "TLE_LINE0": "0 HAIYANG 2D",
    "TLE_LINE1": "1 48621U 21043A   22306.58694801  .00000010  00000-0  83059-4 0  9995",
    "TLE_LINE2": "2 48621  66.0005 357.5213 0011416 263.0395  96.9380 13.83373086 73644",
    "OBJECT_ID": "2021-043A",
    "OBJECT_NUMBER": "48621",
    "SEMIMAJOR_AXIS": "7330.084",
    "PERIOD": "104.093",
    "APOGEE": "960.317",
    "PERIGEE": "943.581",
    "DECAYED": "0"
  },
  {
    "COMMENT": "GENERATED VIA SPACETRACK.ORG API",
    "ORIGINATOR": "18 SPCS",
    "NORAD_CAT_ID": "48621",
    "OBJECT_NAME": "HAIYANG 2D",
    "OBJECT_TYPE": "PAYLOAD",
    "CLASSIFICATION_TYPE": "U",
    "INTLDES": "21043A",
    "EPOCH": "2022-11-02 17:33:24",
    "EPOCH_MICROSECONDS": "846912",
    "MEAN_MOTION": "13.83373127",
    "ECCENTRICITY": "0.0011415",
    "INCLINATION": "66.0005",
    "RA_OF_ASC_NODE": "357.1614",
    "ARG_OF_PERICENTER": "263.0065",
    "MEAN_ANOMALY": "96.9706",
    "EPHEMERIS_TYPE": "0",
    "ELEMENT_SET_NO": "999",
    "REV_AT_EPOCH": "7366",
    "BSTAR": "0.000083069",
    "MEAN_MOTION_DOT": "0.0000001",
    "MEAN_MOTION_DDOT": "0",
    "FILE": "3642874",
    "TLE_LINE0": "0 HAIYANG 2D",
    "TLE_LINE1": "1 48621U 21043A   22306.73153758  .00000010  00000-0  83069-4 0  9994",
    "TLE_LINE2": "2 48621  66.0005 357.1614 0011415 263.0065  96.9706 13.83373127 73668",
    "OBJECT_ID": "2021-043A",
    "OBJECT_NUMBER": "48621",
    "SEMIMAJOR_AXIS": "7330.084",
    "PERIOD": "104.093",
    "APOGEE": "960.316",
    "PERIGEE": "943.582",
    "DECAYED": "0"
  },
  {
    "COMMENT": "GENERATED VIA SPACETRACK.ORG API",
    "ORIGINATOR": "18 SPCS",
    "NORAD_CAT_ID": "48621",
    "OBJECT_NAME": "HAIYANG 2D",
    "OBJECT_TYPE": "PAYLOAD",
    "CLASSIFICATION_TYPE": "U",
    "INTLDES": "21043A",
    "EPOCH": "2022-11-02 22:45:43",
    "EPOCH_MICROSECONDS": "662528",
    "MEAN_MOTION": "13.83373202",
    "ECCENTRICITY": "0.0011422",
    "INCLINATION": "66.0005",
    "RA_OF_ASC_NODE": "356.6216",
    "ARG_OF_PERICENTER": "262.9319",
    "MEAN_ANOMALY": "97.0456",
    "EPHEMERIS_TYPE": "0",
    "ELEMENT_SET_NO": "999",
    "REV_AT_EPOCH": "7369",
    "BSTAR": "0.000085133",
    "MEAN_MOTION_DOT": "0.00000013",
    "MEAN_MOTION_DDOT": "0",
    "FILE": "3643025",
    "TLE_LINE0": "0 HAIYANG 2D",
    "TLE_LINE1": "1 48621U 21043A   22306.94842202  .00000013  00000-0  85133-4 0  9993",
    "TLE_LINE2": "2 48621  66.0005 356.6216 0011422 262.9319  97.0456 13.83373202 73699",
    "OBJECT_ID": "2021-043A",
    "OBJECT_NUMBER": "48621",
    "SEMIMAJOR_AXIS": "7330.084",
    "PERIOD": "104.093",
    "APOGEE": "960.321",
    "PERIGEE": "943.576",
    "DECAYED": "0"
  },
  {
    "COMMENT": "GENERATED VIA SPACETRACK.ORG API",
    "ORIGINATOR": "18 SPCS",
    "NORAD_CAT_ID": "48621",
    "OBJECT_NAME": "HAIYANG 2D",
    "OBJECT_TYPE": "PAYLOAD",
    "CLASSIFICATION_TYPE": "U",
    "INTLDES": "21043A",
    "EPOCH": "2022-11-03 02:13:56",
    "EPOCH_MICROSECONDS": "199648",
    "MEAN_MOTION": "13.83373247",
    "ECCENTRICITY": "0.0011421",
    "INCLINATION": "66.0005",
    "RA_OF_ASC_NODE": "356.2617",
    "ARG_OF_PERICENTER": "262.9157",
    "MEAN_ANOMALY": "97.0614",
    "EPHEMERIS_TYPE": "0",
    "ELEMENT_SET_NO": "999",
    "REV_AT_EPOCH": "7371",
    "BSTAR": "0.000085918",
    "MEAN_MOTION_DOT": "0.00000013",
    "MEAN_MOTION_DDOT": "0",
    "FILE": "3643370",
    "TLE_LINE0": "0 HAIYANG 2D",
    "TLE_LINE1": "1 48621U 21043A   22307.09301157  .00000013  00000-0  85918-4 0  9990",
    "TLE_LINE2": "2 48621  66.0005 356.2617 0011421 262.9157  97.0614 13.83373247 73717",
    "OBJECT_ID": "2021-043A",
    "OBJECT_NUMBER": "48621",
    "SEMIMAJOR_AXIS": "7330.084",
    "PERIOD": "104.093",
    "APOGEE": "960.320",
    "PERIGEE": "943.577",
    "DECAYED": "0"
  },
  {
    "COMMENT": "GENERATED VIA SPACETRACK.ORG API",
    "ORIGINATOR": "18 SPCS",
    "NORAD_CAT_ID": "48621",
    "OBJECT_NAME": "HAIYANG 2D",
    "OBJECT_TYPE": "PAYLOAD",
    "CLASSIFICATION_TYPE": "U",
    "INTLDES": "21043A",
    "EPOCH": "2022-11-03 14:22:40",
    "EPOCH_MICROSECONDS": "135296",
    "MEAN_MOTION": "13.83373268",
    "ECCENTRICITY": "0.0011421",
    "INCLINATION": "66.0005",
    "RA_OF_ASC_NODE": "355.0018",
    "ARG_OF_PERICENTER": "262.8039",
    "MEAN_ANOMALY": "97.1737",
    "EPHEMERIS_TYPE": "0",
    "ELEMENT_SET_NO": "999",
    "REV_AT_EPOCH": "7378",
    "BSTAR": "0.000084048",
    "MEAN_MOTION_DOT": "0.00000011",
    "MEAN_MOTION_DDOT": "0",
    "FILE": "3643684",
    "TLE_LINE0": "0 HAIYANG 2D",
    "TLE_LINE1": "1 48621U 21043A   22307.59907564  .00000011  00000-0  84048-4 0  9990",
    "TLE_LINE2": "2 48621  66.0005 355.0018 0011421 262.8039  97.1737 13.83373268 73784",
    "OBJECT_ID": "2021-043A",
    "OBJECT_NUMBER": "48621",
    "SEMIMAJOR_AXIS": "7330.083",
    "PERIOD": "104.093",
    "APOGEE": "960.320",
    "PERIGEE": "943.577",
    "DECAYED": "0"
  }
]